{
  "type": "FeatureCollection",
  "features": [
    {
      "type": "Feature",
      "properties": {
        "norad_id": 61182,
        "name": "GSAT0232 (GALILEO 32)",
        "group": "gnss",
        "lat": -7.141851339680356,
        "lon": -138.38449766418353,
        "alt_km": 23228.28164281236,
        "timestamp": "2025-12-06T20:37:56.314543+00:00",
        "meta_object_name": "GSAT0232 (GALILEO 32)",
        "meta_object_id": "2024-167A",
        "meta_epoch": "2025-12-04T05:35:38.594112",
        "meta_mean_motion": 1.70473104,
        "meta_eccentricity": 0.00021975,
        "meta_inclination": 55.2442,
        "meta_ra_of_asc_node": 226.6647,
        "meta_arg_of_pericenter": 213.7297,
        "meta_mean_anomaly": 325.6534,
        "meta_ephemeris_type": 0,
        "meta_classification_type": "U",
        "meta_norad_cat_id": 61182,
        "meta_element_set_no": 999,
        "meta_rev_at_epoch": 755,
        "meta_bstar": 0,
        "meta_mean_motion_dot": 4.1e-07,
        "meta_mean_motion_ddot": 0,
        "tle_line1": "1 61182U 24167A   25338.23308558  .00000041  00000+0  00000+0 0  9996",
        "tle_line2": "2 61182  55.2442 226.6647 0002197 213.7297 325.6534  1.70473104  7557"
      },
      "geometry": {
        "type": "Point",
        "coordinates": [
          -138.38449766418353,
          -7.141851339680356
        ]
      }
    },
    {
      "type": "Feature",
      "properties": {
        "norad_id": 61183,
        "name": "GSAT0226 (GALILEO 31)",
        "group": "gnss",
        "lat": 52.88182457336618,
        "lon": -19.82493359410802,
        "alt_km": 23213.937722364943,
        "timestamp": "2025-12-06T20:37:56.314564+00:00",
        "meta_object_name": "GSAT0226 (GALILEO 31)",
        "meta_object_id": "2024-167B",
        "meta_epoch": "2025-12-06T09:26:36.340224",
        "meta_mean_motion": 1.70473292,
        "meta_eccentricity": 7.913e-05,
        "meta_inclination": 55.2417,
        "meta_ra_of_asc_node": 226.6105,
        "meta_arg_of_pericenter": 126.2936,
        "meta_mean_anomaly": 51.6212,
        "meta_ephemeris_type": 0,
        "meta_classification_type": "U",
        "meta_norad_cat_id": 61183,
        "meta_element_set_no": 999,
        "meta_rev_at_epoch": 756,
        "meta_bstar": 0,
        "meta_mean_motion_dot": 3.3e-07,
        "meta_mean_motion_ddot": 0,
        "tle_line1": "1 61183U 24167B   25340.39347616  .00000033  00000+0  00000+0 0  9996",
        "tle_line2": "2 61183  55.2417 226.6105 0000791 126.2936  51.6212  1.70473292  7563"
      },
      "geometry": {
        "type": "Point",
        "coordinates": [
          -19.82493359410802,
          52.88182457336618
        ]
      }
    },
    {
      "type": "Feature",
      "properties": {
        "norad_id": 61186,
        "name": "BEIDOU-3 M25 (C47)",
        "group": "gnss",
        "lat": 48.84334005918123,
        "lon": 74.64529163059721,
        "alt_km": 21537.66217310097,
        "timestamp": "2025-12-06T20:37:56.314582+00:00",
        "meta_object_name": "BEIDOU-3 M25 (C47)",
        "meta_object_id": "2024-168B",
        "meta_epoch": "2025-12-06T03:42:38.696256",
        "meta_mean_motion": 1.86229727,
        "meta_eccentricity": 0.0005472,
        "meta_inclination": 54.6479,
        "meta_ra_of_asc_node": 308.9479,
        "meta_arg_of_pericenter": 294.8981,
        "meta_mean_anomaly": 64.9511,
        "meta_ephemeris_type": 0,
        "meta_classification_type": "U",
        "meta_norad_cat_id": 61186,
        "meta_element_set_no": 999,
        "meta_rev_at_epoch": 818,
        "meta_bstar": 0,
        "meta_mean_motion_dot": -7.1e-07,
        "meta_mean_motion_ddot": 0,
        "tle_line1": "1 61186U 24168B   25340.15461454 -.00000071  00000+0  00000+0 0  9994",
        "tle_line2": "2 61186  54.6479 308.9479 0005472 294.8981  64.9511  1.86229727  8185"
      },
      "geometry": {
        "type": "Point",
        "coordinates": [
          74.64529163059721,
          48.84334005918123
        ]
      }
    },
    {
      "type": "Feature",
      "properties": {
        "norad_id": 61187,
        "name": "BEIDOU-3 M27 (C49)",
        "group": "gnss",
        "lat": -48.90152016694137,
        "lon": -176.68184108705026,
        "alt_km": 21532.91504046553,
        "timestamp": "2025-12-06T20:37:56.314599+00:00",
        "meta_object_name": "BEIDOU-3 M27 (C49)",
        "meta_object_id": "2024-168C",
        "meta_epoch": "2025-12-06T00:40:37.892640",
        "meta_mean_motion": 1.86229869,
        "meta_eccentricity": 0.00022747,
        "meta_inclination": 54.6434,
        "meta_ra_of_asc_node": 308.936,
        "meta_arg_of_pericenter": 331.2531,
        "meta_mean_anomaly": 78.7916,
        "meta_ephemeris_type": 0,
        "meta_classification_type": "U",
        "meta_norad_cat_id": 61187,
        "meta_element_set_no": 999,
        "meta_rev_at_epoch": 566,
        "meta_bstar": 0,
        "meta_mean_motion_dot": -7.1e-07,
        "meta_mean_motion_ddot": 0,
        "tle_line1": "1 61187U 24168C   25340.02821635 -.00000071  00000+0  00000+0 0  9992",
        "tle_line2": "2 61187  54.6434 308.9360 0002274 331.2531  78.7916  1.86229869  5669"
      },
      "geometry": {
        "type": "Point",
        "coordinates": [
          -176.68184108705026,
          -48.90152016694137
        ]
      }
    },
    {
      "type": "Feature",
      "properties": {
        "norad_id": 62339,
        "name": "GPS BIII-7  (PRN 01)",
        "group": "gnss",
        "lat": -20.39981894153546,
        "lon": -33.17260183977144,
        "alt_km": 20153.669748908214,
        "timestamp": "2025-12-06T20:37:56.314619+00:00",
        "meta_object_name": "GPS BIII-7  (PRN 01)",
        "meta_object_id": "2024-242A",
        "meta_epoch": "2025-12-06T03:34:51.967776",
        "meta_mean_motion": 2.00567316,
        "meta_eccentricity": 0.00118388,
        "meta_inclination": 54.9253,
        "meta_ra_of_asc_node": 342.0071,
        "meta_arg_of_pericenter": 343.7333,
        "meta_mean_anomaly": 198.0861,
        "meta_ephemeris_type": 0,
        "meta_classification_type": "U",
        "meta_norad_cat_id": 62339,
        "meta_element_set_no": 999,
        "meta_rev_at_epoch": 738,
        "meta_bstar": 0,
        "meta_mean_motion_dot": -8.2e-07,
        "meta_mean_motion_ddot": 0,
        "tle_line1": "1 62339U 24242A   25340.14921259 -.00000082  00000+0  00000+0 0  9993",
        "tle_line2": "2 62339  54.9253 342.0071 0011838 343.7333 198.0861  2.00567316  7388"
      },
      "geometry": {
        "type": "Point",
        "coordinates": [
          -33.17260183977144,
          -20.39981894153546
        ]
      }
    },
    {
      "type": "Feature",
      "properties": {
        "norad_id": 62850,
        "name": "NVS-02 (IRNSS-1K)",
        "group": "gnss",
        "lat": -10.960360690556232,
        "lon": -179.92008495270463,
        "alt_km": 35619.567970046264,
        "timestamp": "2025-12-06T20:37:56.314641+00:00",
        "meta_object_name": "NVS-02 (IRNSS-1K)",
        "meta_object_id": "2025-020A",
        "meta_epoch": "2025-12-06T02:45:02.989152",
        "meta_mean_motion": 2.17587603,
        "meta_eccentricity": 0.73477742,
        "meta_inclination": 21.0012,
        "meta_ra_of_asc_node": 330.0567,
        "meta_arg_of_pericenter": 21.9348,
        "meta_mean_anomaly": 357.7367,
        "meta_ephemeris_type": 0,
        "meta_classification_type": "U",
        "meta_norad_cat_id": 62850,
        "meta_element_set_no": 999,
        "meta_rev_at_epoch": 677,
        "meta_bstar": 0.00034380671,
        "meta_mean_motion_dot": 4.34e-06,
        "meta_mean_motion_ddot": 0,
        "tle_line1": "1 62850U 25020A   25340.11461793  .00000434  00000+0  34381-3 0  9998",
        "tle_line2": "2 62850  21.0012 330.0567 7347774  21.9348 357.7367  2.17587603  6776"
      },
      "geometry": {
        "type": "Point",
        "coordinates": [
          -179.92008495270463,
          -10.960360690556232
        ]
      }
    },
    {
      "type": "Feature",
      "properties": {
        "norad_id": 63130,
        "name": "COSMOS 2584 (704K)",
        "group": "gnss",
        "lat": 64.93280108599143,
        "lon": 165.01578973333034,
        "alt_km": 19134.425297129113,
        "timestamp": "2025-12-06T20:37:56.314659+00:00",
        "meta_object_name": "COSMOS 2584 (704K)",
        "meta_object_id": "2025-042A",
        "meta_epoch": "2025-12-05T08:05:04.392960",
        "meta_mean_motion": 2.13102926,
        "meta_eccentricity": 0.00075778,
        "meta_inclination": 64.9722,
        "meta_ra_of_asc_node": 79.3982,
        "meta_arg_of_pericenter": 214.8728,
        "meta_mean_anomaly": 145.0805,
        "meta_ephemeris_type": 0,
        "meta_classification_type": "U",
        "meta_norad_cat_id": 63130,
        "meta_element_set_no": 999,
        "meta_rev_at_epoch": 591,
        "meta_bstar": 0,
        "meta_mean_motion_dot": -2.1e-07,
        "meta_mean_motion_ddot": 0,
        "tle_line1": "1 63130U 25042A   25339.33685640 -.00000021  00000+0  00000+0 0  9995",
        "tle_line2": "2 63130  64.9722  79.3982 0007577 214.8728 145.0805  2.13102926  5915"
      },
      "geometry": {
        "type": "Point",
        "coordinates": [
          165.01578973333034,
          64.93280108599143
        ]
      }
    }
  ]
}